{
    "links": {
        "self": "http://www.neowsapp.com/rest/v1/neo/3373618?api_key=iIulBulltgU6a56xZRHN4H3l9WmuAYTsLGpBGhQ2"
    },
    "id": "3373618",
    "neo_reference_id": "3373618",
    "name": "(2007 GY1)",
    "designation": "2007 GY1",
    "nasa_jpl_url": "http://ssd.jpl.nasa.gov/sbdb.cgi?sstr=3373618",
    "absolute_magnitude_h": 22.6,
    "estimated_diameter": {
        "kilometers": {
            "estimated_diameter_min": 0.0802703167,
            "estimated_diameter_max": 0.1794898848
        },
        "meters": {
            "estimated_diameter_min": 80.2703167283,
            "estimated_diameter_max": 179.4898847799
        },
        "miles": {
            "estimated_diameter_min": 0.049877647,
            "estimated_diameter_max": 0.1115298092
        },
        "feet": {
            "estimated_diameter_min": 263.3540659348,
            "estimated_diameter_max": 588.8775935812
        }
    },
    "is_potentially_hazardous_asteroid": false,
    "close_approach_data": [
        {
            "close_approach_date": "2007-04-03",
            "close_approach_date_full": "2007-Apr-03 06:05",
            "epoch_date_close_approach": 1175580300000,
            "relative_velocity": {
                "kilometers_per_second": "15.0887944842",
                "kilometers_per_hour": "54319.660143147",
                "miles_per_hour": "33752.1243817238"
            },
            "miss_distance": {
                "astronomical": "0.030625025",
                "lunar": "11.913134725",
                "kilometers": "4581438.50869675",
                "miles": "2846773.88264515"
            },
            "orbiting_body": "Earth"
        }
    ],
    "orbital_data": {
        "orbit_id": "13",
        "orbit_determination_date": "2017-04-06 09:06:36",
        "first_observation_date": "2007-04-11",
        "last_observation_date": "2007-04-26",
        "data_arc_in_days": 15,
        "observations_used": 129,
        "orbit_uncertainty": "8",
        "minimum_orbit_intersection": ".00924554",
        "jupiter_tisserand_invariant": "3.617",
        "epoch_osculation": "2454205.5",
        "eccentricity": ".5996877474301865",
        "semi_major_axis": "1.978598304112711",
        "inclination": "1.188291372315101",
        "ascending_node_longitude": "163.9054645902151",
        "orbital_period": "1016.564350715446",
        "perihelion_distance": ".7920571440501724",
        "perihelion_argument": "323.1630868827235",
        "aphelion_distance": "3.16513946417525",
        "perihelion_time": "2454150.681969896413",
        "mean_anomaly": "19.41292828476861",
        "mean_motion": ".3541340002200906",
        "equinox": "J2000",
        "orbit_class": {
            "orbit_class_type": "APO",
            "orbit_class_description": "Near-Earth asteroid orbits which cross the Earth’s orbit similar to that of 1862 Apollo",
            "orbit_class_range": "a (semi-major axis) > 1.0 AU; q (perihelion) < 1.017 AU"
        }
    },
    "is_sentry_object": false
}